{
  "name": "SATGUS",
  "line1": "1 62713U 25009DJ  25244.47251701  .00009152  00000+0  81679-3 0  9999",
  "line2": "2 62713  97.7298 323.7951 0002573  50.1823 309.9624 14.96172261 34312",
  "fetched_at": "2025-09-02T00:17:47.371294+00:00"
}